CCSDS_OMM_VERS = 2.0
CREATION_DATE  = 
ORIGINATOR     = 

OBJECT_NAME    = UNKNOWN
OBJECT_ID      = 
CENTER_NAME    = EARTH
REF_FRAME      = TEME
TIME_SYSTEM    = UTC
MEAN_ELEMENT_THEORY = SGP/SGP4

EPOCH          = 2025-12-02T10:53:00.805920
MEAN_MOTION    = 12.68540377
ECCENTRICITY   = .0055538
INCLINATION    = 101.9881
RA_OF_ASC_NODE = 153.4115
ARG_OF_PERICENTER = 273.5782
MEAN_ANOMALY   = 115.2589

EPHEMERIS_TYPE = 0
CLASSIFICATION_TYPE = U
NORAD_CAT_ID   = 87569
ELEMENT_SET_NO = 999
REV_AT_EPOCH   = 55716
BSTAR          = .14201E-3
MEAN_MOTION_DOT = -.21E-6
MEAN_MOTION_DDOT = 0

CCSDS_OMM_VERS = 2.0
CREATION_DATE  = 
ORIGINATOR     = 

OBJECT_NAME    = UNKNOWN
OBJECT_ID      = 
CENTER_NAME    = EARTH
REF_FRAME      = TEME
TIME_SYSTEM    = UTC
MEAN_ELEMENT_THEORY = SGP/SGP4

EPOCH          = 2025-11-21T19:27:59.117760
MEAN_MOTION    = 14.40041221
ECCENTRICITY   = .0020431
INCLINATION    = 74.0224
RA_OF_ASC_NODE = 141.5957
ARG_OF_PERICENTER = 185.9413
MEAN_ANOMALY   = 174.1503

EPHEMERIS_TYPE = 0
CLASSIFICATION_TYPE = U
NORAD_CAT_ID   = 87587
ELEMENT_SET_NO = 999
REV_AT_EPOCH   = 63079
BSTAR          = .8834E-4
MEAN_MOTION_DOT = .253E-5
MEAN_MOTION_DDOT = 0

CCSDS_OMM_VERS = 2.0
CREATION_DATE  = 
ORIGINATOR     = 

OBJECT_NAME    = UNKNOWN
OBJECT_ID      = 
CENTER_NAME    = EARTH
REF_FRAME      = TEME
TIME_SYSTEM    = UTC
MEAN_ELEMENT_THEORY = SGP/SGP4

EPOCH          = 2025-12-03T01:38:10.668192
MEAN_MOTION    = 14.10305378
ECCENTRICITY   = .0025987
INCLINATION    = 98.7885
RA_OF_ASC_NODE = 14.4031
ARG_OF_PERICENTER = 311.4342
MEAN_ANOMALY   = 78.7710

EPHEMERIS_TYPE = 0
CLASSIFICATION_TYPE = U
NORAD_CAT_ID   = 87590
ELEMENT_SET_NO = 999
REV_AT_EPOCH   = 15288
BSTAR          = .4536E-3
MEAN_MOTION_DOT = .764E-5
MEAN_MOTION_DDOT = 0

CCSDS_OMM_VERS = 2.0
CREATION_DATE  = 
ORIGINATOR     = 

OBJECT_NAME    = UNKNOWN
OBJECT_ID      = 
CENTER_NAME    = EARTH
REF_FRAME      = TEME
TIME_SYSTEM    = UTC
MEAN_ELEMENT_THEORY = SGP/SGP4

EPOCH          = 2025-12-02T00:01:10.377120
MEAN_MOTION    = 12.46878095
ECCENTRICITY   = .063383
INCLINATION    = 66.0341
RA_OF_ASC_NODE = 169.6820
ARG_OF_PERICENTER = 143.6568
MEAN_ANOMALY   = 8.8853

EPHEMERIS_TYPE = 0
CLASSIFICATION_TYPE = U
NORAD_CAT_ID   = 87616
ELEMENT_SET_NO = 999
REV_AT_EPOCH   = 53489
BSTAR          = .15843E-2
MEAN_MOTION_DOT = .421E-5
MEAN_MOTION_DDOT = 0

CCSDS_OMM_VERS = 2.0
CREATION_DATE  = 
ORIGINATOR     = 

OBJECT_NAME    = UNKNOWN
OBJECT_ID      = 
CENTER_NAME    = EARTH
REF_FRAME      = TEME
TIME_SYSTEM    = UTC
MEAN_ELEMENT_THEORY = SGP/SGP4

EPOCH          = 2025-12-04T06:37:57.308736
MEAN_MOTION    = 14.69860868
ECCENTRICITY   = .009698
INCLINATION    = 98.6797
RA_OF_ASC_NODE = 275.1736
ARG_OF_PERICENTER = 275.2984
MEAN_ANOMALY   = 83.7161

EPHEMERIS_TYPE = 0
CLASSIFICATION_TYPE = U
NORAD_CAT_ID   = 87624
ELEMENT_SET_NO = 999
REV_AT_EPOCH   = 57903
BSTAR          = .24147E-2
MEAN_MOTION_DOT = .15488E-3
MEAN_MOTION_DDOT = 0

CCSDS_OMM_VERS = 2.0
CREATION_DATE  = 
ORIGINATOR     = 

OBJECT_NAME    = UNKNOWN
OBJECT_ID      = 
CENTER_NAME    = EARTH
REF_FRAME      = TEME
TIME_SYSTEM    = UTC
MEAN_ELEMENT_THEORY = SGP/SGP4

EPOCH          = 2025-11-28T05:30:08.132256
MEAN_MOTION    = 14.61100605
ECCENTRICITY   = .0033059
INCLINATION    = 100.2695
RA_OF_ASC_NODE = 144.0175
ARG_OF_PERICENTER = 322.6319
MEAN_ANOMALY   = 37.2575

EPHEMERIS_TYPE = 0
CLASSIFICATION_TYPE = U
NORAD_CAT_ID   = 87650
ELEMENT_SET_NO = 999
REV_AT_EPOCH   = 7764
BSTAR          = .2648E-2
MEAN_MOTION_DOT = .13074E-3
MEAN_MOTION_DDOT = 0

CCSDS_OMM_VERS = 2.0
CREATION_DATE  = 
ORIGINATOR     = 

OBJECT_NAME    = UNKNOWN
OBJECT_ID      = 
CENTER_NAME    = EARTH
REF_FRAME      = TEME
TIME_SYSTEM    = UTC
MEAN_ELEMENT_THEORY = SGP/SGP4

EPOCH          = 2025-12-01T03:33:43.784352
MEAN_MOTION    = 14.27758475
ECCENTRICITY   = .0063337
INCLINATION    = 70.8584
RA_OF_ASC_NODE = 31.7094
ARG_OF_PERICENTER = 289.9726
MEAN_ANOMALY   = 69.4588

EPHEMERIS_TYPE = 0
CLASSIFICATION_TYPE = U
NORAD_CAT_ID   = 87672
ELEMENT_SET_NO = 999
REV_AT_EPOCH   = 62280
BSTAR          = .10853E-2
MEAN_MOTION_DOT = .2689E-4
MEAN_MOTION_DDOT = 0

CCSDS_OMM_VERS = 2.0
CREATION_DATE  = 
ORIGINATOR     = 

OBJECT_NAME    = UNKNOWN
OBJECT_ID      = 
CENTER_NAME    = EARTH
REF_FRAME      = TEME
TIME_SYSTEM    = UTC
MEAN_ELEMENT_THEORY = SGP/SGP4

EPOCH          = 2025-11-28T20:30:42.854688
MEAN_MOTION    = 13.71058566
ECCENTRICITY   = .0157299
INCLINATION    = 66.7345
RA_OF_ASC_NODE = 131.5658
ARG_OF_PERICENTER = 171.7213
MEAN_ANOMALY   = 188.6508

EPHEMERIS_TYPE = 0
CLASSIFICATION_TYPE = U
NORAD_CAT_ID   = 87681
ELEMENT_SET_NO = 999
REV_AT_EPOCH   = 59993
BSTAR          = .14971E-2
MEAN_MOTION_DOT = .1389E-4
MEAN_MOTION_DDOT = 0

CCSDS_OMM_VERS = 2.0
CREATION_DATE  = 
ORIGINATOR     = 

OBJECT_NAME    = UNKNOWN
OBJECT_ID      = 
CENTER_NAME    = EARTH
REF_FRAME      = TEME
TIME_SYSTEM    = UTC
MEAN_ELEMENT_THEORY = SGP/SGP4

EPOCH          = 2025-12-04T11:53:11.167296
MEAN_MOTION    = 14.00276023
ECCENTRICITY   = .0578301
INCLINATION    = 65.7952
RA_OF_ASC_NODE = 15.4429
ARG_OF_PERICENTER = 51.7722
MEAN_ANOMALY   = 313.3968

EPHEMERIS_TYPE = 0
CLASSIFICATION_TYPE = U
NORAD_CAT_ID   = 87690
ELEMENT_SET_NO = 999
REV_AT_EPOCH   = 60622
BSTAR          = .12685E-2
MEAN_MOTION_DOT = .8321E-4
MEAN_MOTION_DDOT = 0

CCSDS_OMM_VERS = 2.0
CREATION_DATE  = 
ORIGINATOR     = 

OBJECT_NAME    = UNKNOWN
OBJECT_ID      = 
CENTER_NAME    = EARTH
REF_FRAME      = TEME
TIME_SYSTEM    = UTC
MEAN_ELEMENT_THEORY = SGP/SGP4

EPOCH          = 2025-12-03T11:11:30.830784
MEAN_MOTION    = 14.64245211
ECCENTRICITY   = .0104815
INCLINATION    = 98.6722
RA_OF_ASC_NODE = 160.5538
ARG_OF_PERICENTER = 296.7908
MEAN_ANOMALY   = 92.5221

EPHEMERIS_TYPE = 0
CLASSIFICATION_TYPE = U
NORAD_CAT_ID   = 87706
ELEMENT_SET_NO = 999
REV_AT_EPOCH   = 57716
BSTAR          = .11688E-2
MEAN_MOTION_DOT = .6618E-4
MEAN_MOTION_DDOT = 0

CCSDS_OMM_VERS = 2.0
CREATION_DATE  = 
ORIGINATOR     = 

OBJECT_NAME    = UNKNOWN
OBJECT_ID      = 
CENTER_NAME    = EARTH
REF_FRAME      = TEME
TIME_SYSTEM    = UTC
MEAN_ELEMENT_THEORY = SGP/SGP4

EPOCH          = 2025-12-02T05:41:32.183520
MEAN_MOTION    = 14.95186099
ECCENTRICITY   = .0019922
INCLINATION    = 82.8670
RA_OF_ASC_NODE = 265.4382
ARG_OF_PERICENTER = 79.3362
MEAN_ANOMALY   = 281.0102

EPHEMERIS_TYPE = 0
CLASSIFICATION_TYPE = U
NORAD_CAT_ID   = 87725
ELEMENT_SET_NO = 999
REV_AT_EPOCH   = 63235
BSTAR          = .64698E-2
MEAN_MOTION_DOT = .72002E-3
MEAN_MOTION_DDOT = 0

CCSDS_OMM_VERS = 2.0
CREATION_DATE  = 
ORIGINATOR     = 

OBJECT_NAME    = UNKNOWN
OBJECT_ID      = 
CENTER_NAME    = EARTH
REF_FRAME      = TEME
TIME_SYSTEM    = UTC
MEAN_ELEMENT_THEORY = SGP/SGP4

EPOCH          = 2025-12-04T10:28:56.488224
MEAN_MOTION    = 13.74503454
ECCENTRICITY   = .0030794
INCLINATION    = 82.9457
RA_OF_ASC_NODE = 240.2426
ARG_OF_PERICENTER = 29.1223
MEAN_ANOMALY   = 331.1642

EPHEMERIS_TYPE = 0
CLASSIFICATION_TYPE = U
NORAD_CAT_ID   = 87730
ELEMENT_SET_NO = 999
REV_AT_EPOCH   = 58419
BSTAR          = .15216E-3
MEAN_MOTION_DOT = .16E-5
MEAN_MOTION_DDOT = 0

