UNKNOWN                 
1 87569U          25336.45348155 -.00000021  00000+0  14201-3 0  9993
2 87569 101.9881 153.4115 0055538 273.5782 115.2589 12.68540377557163
UNKNOWN                 
1 87587U          25325.81110090  .00000253  00000+0  88340-4 0  9998
2 87587  74.0224 141.5957 0020431 185.9413 174.1503 14.40041221630794
UNKNOWN                 
1 87590U          25337.06817903  .00000764  00000+0  45360-3 0  9990
2 87590  98.7885  14.4031 0025987 311.4342  78.7710 14.10305378152884
UNKNOWN                 
1 87616U          25336.00081455  .00000421  00000+0  15843-2 0  9999
2 87616  66.0341 169.6820 0633830 143.6568   8.8853 12.46878095534899
UNKNOWN                 
1 87624U          25338.27635774  .00015488  00000+0  24147-2 0  9994
2 87624  98.6797 275.1736 0096980 275.2984  83.7161 14.69860868579031
UNKNOWN                 
1 87650U          25332.22926079  .00013074  00000+0  26480-2 0  9994
2 87650 100.2695 144.0175 0033059 322.6319  37.2575 14.61100605 77646
UNKNOWN                 
1 87672U          25335.14842343  .00002689  00000+0  10853-2 0  9990
2 87672  70.8584  31.7094 0063337 289.9726  69.4588 14.27758475622801
UNKNOWN                 
1 87681U          25332.85466267  .00001389  00000+0  14971-2 0  9993
2 87681  66.7345 131.5658 0157299 171.7213 188.6508 13.71058566599930
UNKNOWN                 
1 87690U          25338.49526814  .00008321  00000+0  12685-2 0  9997
2 87690  65.7952  15.4429 0578301  51.7722 313.3968 14.00276023606223
UNKNOWN                 
1 87706U          25337.46632906  .00006618  00000+0  11688-2 0  9990
2 87706  98.6722 160.5538 0104815 296.7908  92.5221 14.64245211577169
UNKNOWN                 
1 87725U          25336.23717805  .00072002  00000+0  64698-2 0  9996
2 87725  82.8670 265.4382 0019922  79.3362 281.0102 14.95186099632350
UNKNOWN                 
1 87730U          25338.43676491  .00000160  00000+0  15216-3 0  9990
2 87730  82.9457 240.2426 0030794  29.1223 331.1642 13.74503454584197
